[{"OBJECT_NAME":"GAOFEN-9 01","OBJECT_ID":"2015-047A","EPOCH":"2026-03-09T23:58:40.833408","MEAN_MOTION":14.82682185,"ECCENTRICITY":0.00289246,"INCLINATION":97.6417,"RA_OF_ASC_NODE":109.1488,"ARG_OF_PERICENTER":104.8974,"MEAN_ANOMALY":255.5446,"EPHEMERIS_TYPE":0,"CLASSIFICATION_TYPE":"U","NORAD_CAT_ID":40894,"ELEMENT_SET_NO":999,"REV_AT_EPOCH":56549,"BSTAR":0.00017529846,"MEAN_MOTION_DOT":1.373e-5,"MEAN_MOTION_DDOT":0},{"OBJECT_NAME":"IRIDIUM 33 DEB","OBJECT_ID":"1997-051CN","EPOCH":"2026-03-09T19:32:39.686208","MEAN_MOTION":14.87082695,"ECCENTRICITY":0.00091607,"INCLINATION":86.378,"RA_OF_ASC_NODE":328.9637,"ARG_OF_PERICENTER":46.4147,"MEAN_ANOMALY":357.067,"EPHEMERIS_TYPE":0,"CLASSIFICATION_TYPE":"U","NORAD_CAT_ID":34079,"ELEMENT_SET_NO":999,"REV_AT_EPOCH":90270,"BSTAR":0.0018267076,"MEAN_MOTION_DOT":0.00016445,"MEAN_MOTION_DDOT":0}]
